COSMOS 2419 (714)       
1 28915U 05050A   17010.38320385 -.00000021  00000-0  00000+0 0  9999
2 28915  65.4192  71.1727 0014956 349.0964 346.7192  2.13108986 85967
COSMOS 2425 (716)       
1 29670U 06062A   17009.64110067 -.00000052  00000-0  10000-3 0  9992
2 29670  65.5397 310.2072 0022706 341.6718 199.6893  2.13105006 78157
COSMOS 2426 (717)       
1 29671U 06062B   17009.88853215 -.00000052  00000-0  10000-3 0  9998
2 29671  65.5564 310.2849 0015926 171.0793  59.5492  2.13103146 78163
COSMOS 2424 (715)       
1 29672U 06062C   17010.15934865 -.00000052  00000-0  10000-3 0  9992
2 29672  65.5404 310.2002 0015309 169.4538  84.7027  2.13102116 78161
COSMOS 2433 (720)       
1 32275U 07052A   17009.77567825 -.00000023  00000-0  10000-3 0  9997
2 32275  65.4334  70.9685 0003724 255.9599 220.8246  2.13105008 71676
COSMOS 2432 (719)       
1 32276U 07052B   17009.84019920 -.00000023  00000-0  10000-3 0  9994
2 32276  65.4461  71.0350 0011480 329.8399 149.7102  2.13104118 71677
COSMOS 2434 (721)       
1 32393U 07065A   17010.39775750 -.00000051  00000-0  00000+0 0  9996
2 32393  65.1557 309.4057 0001972 103.6896  20.8594  2.13102885 70398
COSMOS 2436 (723)       
1 32395U 07065C   17009.54323655 -.00000052  00000-0  10000-3 0  9992
2 32395  65.1665 309.4784 0015971 353.4103 243.4703  2.13104328 70307
COSMOS 2443 (725)       
1 33379U 08046B   17010.14581814 -.00000021  00000-0  00000+0 0  9997
2 33379  65.3628  70.3526 0016370 187.7031 115.4395  2.13101852 64544
COSMOS 2456 (730)       
1 36111U 09070A   17010.45169525  .00000085  00000-0  00000+0 0  9996
2 36111  64.1810 188.9706 0003328 350.5232 345.9077  2.13102978 55052
COSMOS 2457 (733)       
1 36112U 09070B   17010.14302404  .00000090  00000-0  00000+0 0  9994
2 36112  64.1619 188.9038 0007283 147.3511  81.5791  2.13101676 55054
COSMOS 2458 (734)       
1 36113U 09070C   17009.69826300  .00000098  00000-0  10000-3 0  9992
2 36113  64.1670 188.9261 0003130  60.6758 234.7607  2.13102015 55042
COSMOS 2459 (731)       
1 36400U 10007A   17009.73782468 -.00000023  00000-0  10000-3 0  9993
2 36400  65.3421  70.0945 0027288 350.3200 320.8894  2.13102274 53397
COSMOS 2461 (735)       
1 36401U 10007B   17009.63727042 -.00000023  00000-0  10000-3 0  9990
2 36401  65.3352  70.0778 0005187  72.0386  72.6245  2.13102214 53398
COSMOS 2460 (732)       
1 36402U 10007C   17010.51878009 -.00000020  00000-0  10000-3 0  9997
2 36402  65.3267  70.0238 0001219 249.3125 253.1621  2.13101900 53415
COSMOS 2465 (737)       
1 37138U 10041B   17009.50779655 -.00000052  00000-0  00000+0 0  9996
2 37138  64.7535 309.5040 0034386 174.3762  30.9139  2.13103932 49461
COSMOS 2464 (736)       
1 37139U 10041C   17009.64828584 -.00000052  00000-0  00000+0 0  9998
2 37139  64.7622 309.4976 0023443   7.3251 129.9754  2.13102683 49471
COSMOS 2471 (701K)      
1 37372U 11009A   17009.84598748 -.00000022  00000-0  00000+0 0  9997
2 37372  65.3241  69.9957 0008712 235.2230 244.4022  2.13102917 45671
COSMOS 2474 (742)       
1 37829U 11055A   17009.68288454  .00000099  00000-0  00000-0 0  9991
2 37829  64.5047 189.4959 0005813 243.4432  83.6622  2.13101977 41037
COSMOS 2476 (744)       
1 37867U 11064A   17010.22090545  .00000091  00000-0  00000+0 0  9998
2 37867  64.4831 189.5543 0014941 241.4076 184.3389  2.13102033 40406
COSMOS 2477 (745)       
1 37868U 11064B   17009.90779794  .00000096  00000-0  00000+0 0  9997
2 37868  64.4924 189.6066 0012881 242.3977 122.3714  2.13101902 40354
COSMOS 2475 (743)       
1 37869U 11064C   17010.43731705  .00000087  00000-0  00000+0 0  9998
2 37869  64.5001 189.5788 0017785 274.1960  93.1193  2.13102109 40373
COSMOS 2485 (747)       
1 39155U 13019A   17010.34952400  .00000089  00000-0  00000+0 0  9999
2 39155  64.6543 189.5446 0015493 235.2853 334.2232  2.13102082 28873
COSMOS 2492 (754)       
1 39620U 14012A   17010.44792212 -.00000020  00000-0  10000-3 0  9995
2 39620  65.2158  69.9836 0015028 326.9096 351.8559  2.13103535 21823
COSMOS 2500 (755)       
1 40001U 14032A   17009.67037097 -.00000023  00000-0  00000+0 0  9996
2 40001  65.1560  70.0195 0007053 212.7528  92.8558  2.13102867 20025
COSMOS 2501 (702K)      
1 40315U 14075A   17010.18158551 -.00000054  00000-0  00000+0 0  9992
2 40315  64.4886 310.8768 0015075 215.4956 290.3006  2.13100582 16441
COSMOS 2514 (751)       
1 41330U 16008A   17010.44054664 -.00000021  00000-0  00000+0 0  9991
2 41330  64.9571  70.1766 0010339 219.0929 136.9519  2.13103467  7200
COSMOS 2516 (753)       
1 41554U 16032A   17010.20143531 -.00000053  00000-0  00000+0 0  9997
2 41554  64.7077 310.5958 0012297 232.4200 193.6850  2.13101736  4816
